{
    "links": {
        "self": "http://www.neowsapp.com/rest/v1/neo/3602836?api_key=iIulBulltgU6a56xZRHN4H3l9WmuAYTsLGpBGhQ2"
    },
    "id": "3602836",
    "neo_reference_id": "3602836",
    "name": "(2012 HM13)",
    "designation": "2012 HM13",
    "nasa_jpl_url": "http://ssd.jpl.nasa.gov/sbdb.cgi?sstr=3602836",
    "absolute_magnitude_h": 28.2,
    "estimated_diameter": {
        "kilometers": {
            "estimated_diameter_min": 0.0060891262,
            "estimated_diameter_max": 0.0136157002
        },
        "meters": {
            "estimated_diameter_min": 6.0891262211,
            "estimated_diameter_max": 13.6157001539
        },
        "miles": {
            "estimated_diameter_min": 0.0037836064,
            "estimated_diameter_max": 0.0084604012
        },
        "feet": {
            "estimated_diameter_min": 19.9774488711,
            "estimated_diameter_max": 44.6709336928
        }
    },
    "is_potentially_hazardous_asteroid": false,
    "close_approach_data": [
        {
            "close_approach_date": "2012-04-19",
            "close_approach_date_full": "2012-Apr-19 06:25",
            "epoch_date_close_approach": 1334816700000,
            "relative_velocity": {
                "kilometers_per_second": "13.7480335236",
                "kilometers_per_hour": "49492.9206850482",
                "miles_per_hour": "30752.9761889956"
            },
            "miss_distance": {
                "astronomical": "0.0038333294",
                "lunar": "1.4911651366",
                "kilometers": "573457.913248378",
                "miles": "356330.2240404964"
            },
            "orbiting_body": "Moon"
        },
        {
            "close_approach_date": "2012-04-19",
            "close_approach_date_full": "2012-Apr-19 11:41",
            "epoch_date_close_approach": 1334835660000,
            "relative_velocity": {
                "kilometers_per_second": "13.0520943973",
                "kilometers_per_hour": "46987.5398302174",
                "miles_per_hour": "29196.2299572814"
            },
            "miss_distance": {
                "astronomical": "0.0018768317",
                "lunar": "0.7300875313",
                "kilometers": "280770.024668479",
                "miles": "174462.4033998502"
            },
            "orbiting_body": "Earth"
        }
    ],
    "orbital_data": {
        "orbit_id": "5",
        "orbit_determination_date": "2019-07-19 05:25:36",
        "first_observation_date": "2012-04-21",
        "last_observation_date": "2012-04-24",
        "data_arc_in_days": 3,
        "observations_used": 14,
        "orbit_uncertainty": "8",
        "minimum_orbit_intersection": ".00129424",
        "jupiter_tisserand_invariant": "3.426",
        "epoch_osculation": "2456040.5",
        "eccentricity": ".602761607283143",
        "semi_major_axis": "2.168059688148745",
        "inclination": "4.90307510174728",
        "ascending_node_longitude": "210.3029337843127",
        "orbital_period": "1166.018063903686",
        "perihelion_distance": ".8612365458344176",
        "perihelion_argument": "307.4878520772553",
        "aphelion_distance": "3.474882830463072",
        "perihelion_time": "2456000.066578690746",
        "mean_anomaly": "12.48353873918525",
        "mean_motion": ".3087430728086356",
        "equinox": "J2000",
        "orbit_class": {
            "orbit_class_type": "APO",
            "orbit_class_description": "Near-Earth asteroid orbits which cross the Earth’s orbit similar to that of 1862 Apollo",
            "orbit_class_range": "a (semi-major axis) > 1.0 AU; q (perihelion) < 1.017 AU"
        }
    },
    "is_sentry_object": false
}